[{"OBJECT_NAME":"STARLINK-32800","OBJECT_ID":"2025-014J","EPOCH":"2026-03-09T23:00:32.728896","MEAN_MOTION":15.27580308,"ECCENTRICITY":0.00013849,"INCLINATION":43.0009,"RA_OF_ASC_NODE":160.2166,"ARG_OF_PERICENTER":273.5722,"MEAN_ANOMALY":86.4972,"EPHEMERIS_TYPE":0,"CLASSIFICATION_TYPE":"U","NORAD_CAT_ID":62743,"ELEMENT_SET_NO":999,"REV_AT_EPOCH":6321,"BSTAR":0.0011843568,"MEAN_MOTION_DOT":0.00032473,"MEAN_MOTION_DDOT":0},{"OBJECT_NAME":"TEVEL2-7","OBJECT_ID":"2025-052AE","EPOCH":"2026-03-09T15:52:01.887744","MEAN_MOTION":15.28414096,"ECCENTRICITY":0.00081048,"INCLINATION":97.4054,"RA_OF_ASC_NODE":324.3041,"ARG_OF_PERICENTER":124.683,"MEAN_ANOMALY":235.5175,"EPHEMERIS_TYPE":0,"CLASSIFICATION_TYPE":"U","NORAD_CAT_ID":63238,"ELEMENT_SET_NO":999,"REV_AT_EPOCH":5480,"BSTAR":0.00069668191,"MEAN_MOTION_DOT":0.00019244,"MEAN_MOTION_DDOT":0}]
